BEIJING 1               
1 28890U 05043A   19023.54807860 -.00000023  00000-0  45103-5 0  9996
2 28890  97.9558 164.4582 0016524 106.5670 253.7346 14.61245521705907
HJ-1A                   
1 33320U 08041A   19023.54362939  .00000026  00000-0  10961-4 0  9999
2 33320  97.8607  85.9263 0024833 295.9934  63.8730 14.76990753559180
HJ-1B                   
1 33321U 08041B   19023.51512098  .00000066  00000-0  16555-4 0  9999
2 33321  97.8674  87.6203 0033625 313.4718  46.3699 14.77091353559171
YAOGAN 4                
1 33446U 08061A   19023.53020527  .00000066  00000-0  16268-4 0  9993
2 33446  97.6550 357.9623 0015741 194.0095 166.0681 14.76921179546410
DEIMOS-1                
1 35681U 09041A   19023.58487008 -.00000071  00000-0 -37530-5 0  9995
2 35681  97.8832 270.1627 0000257 172.2000 187.9232 14.71767588509249
UK-DMC 2                
1 35683U 09041C   19023.57504858 -.00000033  00000-0  21527-5 0  9995
2 35683  97.7552 247.2890 0001413  78.2103 281.9286 14.71061445509063
RISAT 1                 
1 38248U 12017A   19023.70529854  .00000367  00000-0  26678-4 0  9990
2 38248  97.5721  34.1344 0003400 170.5415 248.6718 15.09708939371566
DMC3-FM1                
1 40715U 15032A   19023.65677143  .00000009  00000-0  90740-5 0  9996
2 40715  97.9858 281.9346 0017522  63.2660 297.0356 14.73682397190426
DMC3-FM2                
1 40716U 15032B   19023.67967928  .00000002  00000-0  79499-5 0  9993
2 40716  97.9871 282.1671 0014687  72.0967 288.1861 14.73692415190438
DMC3-FM3                
1 40717U 15032C   19023.70216174  .00000003  00000-0  81467-5 0  9997
2 40717  97.9870 282.8812 0018308  64.4023 295.9084 14.73681585190433
